CCSDS_OMM_VERS = 2.0
CREATION_DATE  = 
ORIGINATOR     = 

OBJECT_NAME    = ALOS (DAICHI)
OBJECT_ID      = 2006-002A
CENTER_NAME    = EARTH
REF_FRAME      = TEME
TIME_SYSTEM    = UTC
MEAN_ELEMENT_THEORY = SGP/SGP4

EPOCH          = 2026-02-06T20:48:48.856896
MEAN_MOTION    = 14.69707022
ECCENTRICITY   = .00020114
INCLINATION    = 98.1170
RA_OF_ASC_NODE = 353.9907
ARG_OF_PERICENTER = 68.1833
MEAN_ANOMALY   = 291.9587

EPHEMERIS_TYPE = 0
CLASSIFICATION_TYPE = U
NORAD_CAT_ID   = 28931
ELEMENT_SET_NO = 999
REV_AT_EPOCH   = 6895
BSTAR          = .37570174E-3
MEAN_MOTION_DOT = .2189E-4
MEAN_MOTION_DDOT = 0

CCSDS_OMM_VERS = 2.0
CREATION_DATE  = 
ORIGINATOR     = 

OBJECT_NAME    = H-2A R/B
OBJECT_ID      = 2006-002B
CENTER_NAME    = EARTH
REF_FRAME      = TEME
TIME_SYSTEM    = UTC
MEAN_ELEMENT_THEORY = SGP/SGP4

EPOCH          = 2026-02-06T22:03:19.336320
MEAN_MOTION    = 15.15804156
ECCENTRICITY   = .00529359
INCLINATION    = 98.2362
RA_OF_ASC_NODE = 182.3248
ARG_OF_PERICENTER = 347.2389
MEAN_ANOMALY   = 12.7498

EPHEMERIS_TYPE = 0
CLASSIFICATION_TYPE = U
NORAD_CAT_ID   = 28932
ELEMENT_SET_NO = 999
REV_AT_EPOCH   = 8977
BSTAR          = .5173942E-3
MEAN_MOTION_DOT = .10165E-3
MEAN_MOTION_DDOT = 0

CCSDS_OMM_VERS = 2.0
CREATION_DATE  = 
ORIGINATOR     = 

OBJECT_NAME    = RESURS-DK 1
OBJECT_ID      = 2006-021A
CENTER_NAME    = EARTH
REF_FRAME      = TEME
TIME_SYSTEM    = UTC
MEAN_ELEMENT_THEORY = SGP/SGP4

EPOCH          = 2026-02-06T22:02:04.883712
MEAN_MOTION    = 15.12563315
ECCENTRICITY   = .0004794
INCLINATION    = 69.9348
RA_OF_ASC_NODE = 316.6099
ARG_OF_PERICENTER = 207.0129
MEAN_ANOMALY   = 153.0788

EPHEMERIS_TYPE = 0
CLASSIFICATION_TYPE = U
NORAD_CAT_ID   = 29228
ELEMENT_SET_NO = 999
REV_AT_EPOCH   = 8287
BSTAR          = .24511767E-3
MEAN_MOTION_DOT = .418E-4
MEAN_MOTION_DDOT = 0

CCSDS_OMM_VERS = 2.0
CREATION_DATE  = 
ORIGINATOR     = 

OBJECT_NAME    = CZ-4B R/B
OBJECT_ID      = 2006-046C
CENTER_NAME    = EARTH
REF_FRAME      = TEME
TIME_SYSTEM    = UTC
MEAN_ELEMENT_THEORY = SGP/SGP4

EPOCH          = 2026-02-06T16:01:44.040576
MEAN_MOTION    = 15.16566682
ECCENTRICITY   = .00339198
INCLINATION    = 97.5650
RA_OF_ASC_NODE = 82.6573
ARG_OF_PERICENTER = 17.7585
MEAN_ANOMALY   = 342.4825

EPHEMERIS_TYPE = 0
CLASSIFICATION_TYPE = U
NORAD_CAT_ID   = 29507
ELEMENT_SET_NO = 999
REV_AT_EPOCH   = 5534
BSTAR          = .34950458E-3
MEAN_MOTION_DOT = .6853E-4
MEAN_MOTION_DDOT = 0

CCSDS_OMM_VERS = 2.0
CREATION_DATE  = 
ORIGINATOR     = 

OBJECT_NAME    = CZ-2C R/B
OBJECT_ID      = 2007-010B
CENTER_NAME    = EARTH
REF_FRAME      = TEME
TIME_SYSTEM    = UTC
MEAN_ELEMENT_THEORY = SGP/SGP4

EPOCH          = 2026-02-06T22:32:19.988736
MEAN_MOTION    = 14.20235422
ECCENTRICITY   = .00593911
INCLINATION    = 98.3969
RA_OF_ASC_NODE = 152.7624
ARG_OF_PERICENTER = 24.6856
MEAN_ANOMALY   = 335.7144

EPHEMERIS_TYPE = 0
CLASSIFICATION_TYPE = U
NORAD_CAT_ID   = 31114
ELEMENT_SET_NO = 999
REV_AT_EPOCH   = 97535
BSTAR          = .92165943E-4
MEAN_MOTION_DOT = .159E-5
MEAN_MOTION_DDOT = 0

CCSDS_OMM_VERS = 2.0
CREATION_DATE  = 
ORIGINATOR     = 

OBJECT_NAME    = COSMO-SKYMED 1
OBJECT_ID      = 2007-023A
CENTER_NAME    = EARTH
REF_FRAME      = TEME
TIME_SYSTEM    = UTC
MEAN_ELEMENT_THEORY = SGP/SGP4

EPOCH          = 2026-02-06T21:43:26.704416
MEAN_MOTION    = 14.96291201
ECCENTRICITY   = .00009764
INCLINATION    = 97.8856
RA_OF_ASC_NODE = 228.6972
ARG_OF_PERICENTER = 74.5800
MEAN_ANOMALY   = 285.5529

EPHEMERIS_TYPE = 0
CLASSIFICATION_TYPE = U
NORAD_CAT_ID   = 31598
ELEMENT_SET_NO = 999
REV_AT_EPOCH   = 1030
BSTAR          = .44761794E-3
MEAN_MOTION_DOT = .5E-4
MEAN_MOTION_DDOT = 0

CCSDS_OMM_VERS = 2.0
CREATION_DATE  = 
ORIGINATOR     = 

OBJECT_NAME    = COSMOS 2428
OBJECT_ID      = 2007-029A
CENTER_NAME    = EARTH
REF_FRAME      = TEME
TIME_SYSTEM    = UTC
MEAN_ELEMENT_THEORY = SGP/SGP4

EPOCH          = 2026-02-06T22:49:38.865792
MEAN_MOTION    = 14.12931523
ECCENTRICITY   = .00071931
INCLINATION    = 70.9397
RA_OF_ASC_NODE = 267.8686
ARG_OF_PERICENTER = 310.9876
MEAN_ANOMALY   = 49.0622

EPHEMERIS_TYPE = 0
CLASSIFICATION_TYPE = U
NORAD_CAT_ID   = 31792
ELEMENT_SET_NO = 999
REV_AT_EPOCH   = 95975
BSTAR          = .21048903E-3
MEAN_MOTION_DOT = .344E-5
MEAN_MOTION_DDOT = 0

CCSDS_OMM_VERS = 2.0
CREATION_DATE  = 
ORIGINATOR     = 

OBJECT_NAME    = SL-16 R/B
OBJECT_ID      = 2007-029B
CENTER_NAME    = EARTH
REF_FRAME      = TEME
TIME_SYSTEM    = UTC
MEAN_ELEMENT_THEORY = SGP/SGP4

EPOCH          = 2026-02-06T23:01:28.430976
MEAN_MOTION    = 14.14830269
ECCENTRICITY   = .00018945
INCLINATION    = 70.9731
RA_OF_ASC_NODE = 236.9806
ARG_OF_PERICENTER = 276.4183
MEAN_ANOMALY   = 190.8427

EPHEMERIS_TYPE = 0
CLASSIFICATION_TYPE = U
NORAD_CAT_ID   = 31793
ELEMENT_SET_NO = 999
REV_AT_EPOCH   = 96102
BSTAR          = .25831962E-3
MEAN_MOTION_DOT = .451E-5
MEAN_MOTION_DDOT = 0

CCSDS_OMM_VERS = 2.0
CREATION_DATE  = 
ORIGINATOR     = 

OBJECT_NAME    = KORONAS-FOTON
OBJECT_ID      = 2009-003A
CENTER_NAME    = EARTH
REF_FRAME      = TEME
TIME_SYSTEM    = UTC
MEAN_ELEMENT_THEORY = SGP/SGP4

EPOCH          = 2026-02-06T19:53:05.891424
MEAN_MOTION    = 15.42513082
ECCENTRICITY   = .00088897
INCLINATION    = 82.4327
RA_OF_ASC_NODE = 307.9392
ARG_OF_PERICENTER = 270.1031
MEAN_ANOMALY   = 89.9198

EPHEMERIS_TYPE = 0
CLASSIFICATION_TYPE = U
NORAD_CAT_ID   = 33504
ELEMENT_SET_NO = 999
REV_AT_EPOCH   = 94098
BSTAR          = .28676421E-3
MEAN_MOTION_DOT = .12487E-3
MEAN_MOTION_DDOT = 0

CCSDS_OMM_VERS = 2.0
CREATION_DATE  = 
ORIGINATOR     = 

OBJECT_NAME    = CZ-2C R/B
OBJECT_ID      = 2011-030B
CENTER_NAME    = EARTH
REF_FRAME      = TEME
TIME_SYSTEM    = UTC
MEAN_ELEMENT_THEORY = SGP/SGP4

EPOCH          = 2026-02-06T20:58:04.570464
MEAN_MOTION    = 14.81103212
ECCENTRICITY   = .00542098
INCLINATION    = 97.8493
RA_OF_ASC_NODE = 355.7690
ARG_OF_PERICENTER = 90.5512
MEAN_ANOMALY   = 329.0692

EPHEMERIS_TYPE = 0
CLASSIFICATION_TYPE = U
NORAD_CAT_ID   = 37731
ELEMENT_SET_NO = 999
REV_AT_EPOCH   = 78553
BSTAR          = .26417303E-3
MEAN_MOTION_DOT = .205E-4
MEAN_MOTION_DDOT = 0

CCSDS_OMM_VERS = 2.0
CREATION_DATE  = 
ORIGINATOR     = 

OBJECT_NAME    = H-2A R/B
OBJECT_ID      = 2012-025E
CENTER_NAME    = EARTH
REF_FRAME      = TEME
TIME_SYSTEM    = UTC
MEAN_ELEMENT_THEORY = SGP/SGP4

EPOCH          = 2026-02-06T20:59:05.147232
MEAN_MOTION    = 14.94896263
ECCENTRICITY   = .00460157
INCLINATION    = 98.4682
RA_OF_ASC_NODE = 2.4748
ARG_OF_PERICENTER = 54.4497
MEAN_ANOMALY   = 306.0999

EPHEMERIS_TYPE = 0
CLASSIFICATION_TYPE = U
NORAD_CAT_ID   = 38341
ELEMENT_SET_NO = 999
REV_AT_EPOCH   = 74361
BSTAR          = .40935408E-3
MEAN_MOTION_DOT = .449E-4
MEAN_MOTION_DDOT = 0

CCSDS_OMM_VERS = 2.0
CREATION_DATE  = 
ORIGINATOR     = 

OBJECT_NAME    = SHIJIAN-16 (SJ-16)
OBJECT_ID      = 2013-057A
CENTER_NAME    = EARTH
REF_FRAME      = TEME
TIME_SYSTEM    = UTC
MEAN_ELEMENT_THEORY = SGP/SGP4

EPOCH          = 2026-02-06T23:46:50.188224
MEAN_MOTION    = 14.92235419
ECCENTRICITY   = .00169393
INCLINATION    = 74.9702
RA_OF_ASC_NODE = 243.2008
ARG_OF_PERICENTER = 188.8708
MEAN_ANOMALY   = 171.2183

EPHEMERIS_TYPE = 0
CLASSIFICATION_TYPE = U
NORAD_CAT_ID   = 39358
ELEMENT_SET_NO = 999
REV_AT_EPOCH   = 66692
BSTAR          = .16031206E-3
MEAN_MOTION_DOT = .161E-4
MEAN_MOTION_DDOT = 0

