ALOS (DAICHI)           
1 28931U 06002A   26037.86723214  .00002189  00000+0  37570-3 0  9996
2 28931  98.1170 353.9907 0002011  68.1833 291.9587 14.69707022 68957
H-2A R/B                
1 28932U 06002B   26037.91897380  .00010165  00000+0  51739-3 0  9995
2 28932  98.2362 182.3248 0052935 347.2389  12.7498 15.15804156 89772
RESURS-DK 1             
1 29228U 06021A   26037.91811208  .00004180  00000+0  24512-3 0  9999
2 29228  69.9348 316.6099 0004794 207.0129 153.0788 15.12563315 82872
CZ-4B R/B               
1 29507U 06046C   26037.66787084  .00006853  00000+0  34950-3 0  9998
2 29507  97.5650  82.6573 0033919  17.7585 342.4825 15.16566682 55347
CZ-2C R/B               
1 31114U 07010B   26037.93912024  .00000159  00000+0  92166-4 0  9998
2 31114  98.3969 152.7624 0059391  24.6856 335.7144 14.20235422975352
COSMO-SKYMED 1          
1 31598U 07023A   26037.90517019  .00005000  00000+0  44762-3 0  9998
2 31598  97.8856 228.6972 0000976  74.5800 285.5529 14.96291201 10308
COSMOS 2428             
1 31792U 07029A   26037.95114428  .00000344  00000+0  21049-3 0  9991
2 31792  70.9397 267.8686 0007193 310.9876  49.0622 14.12931523959755
SL-16 R/B               
1 31793U 07029B   26037.95935684  .00000451  00000+0  25832-3 0  9990
2 31793  70.9731 236.9806 0001894 276.4183 190.8427 14.14830269961026
KORONAS-FOTON           
1 33504U 09003A   26037.82854041  .00012487  00000+0  28676-3 0  9990
2 33504  82.4327 307.9392 0008889 270.1031  89.9198 15.42513082940988
CZ-2C R/B               
1 37731U 11030B   26037.87366401  .00002050  00000+0  26417-3 0  9998
2 37731  97.8493 355.7690 0054209  90.5512 329.0692 14.81103212785532
H-2A R/B                
1 38341U 12025E   26037.87436513  .00004490  00000+0  40935-3 0  9994
2 38341  98.4682   2.4748 0046015  54.4497 306.0999 14.94896263743611
SHIJIAN-16 (SJ-16)      
1 39358U 13057A   26037.99085866  .00001610  00000+0  16031-3 0  9994
2 39358  74.9702 243.2008 0016939 188.8708 171.2183 14.92235419666928
